{
  "type": "FeatureCollection",
  "features": [
    {
      "type": "Feature",
      "properties": {
        "norad_id": 31307,
        "name": "GALAXY 17 (G-17)",
        "group": "intelsat",
        "lat": -1.5864049562002684,
        "lon": -58.54625470710947,
        "alt_km": 35773.26020372194,
        "timestamp": "2025-12-07T20:38:13.745026+00:00",
        "meta_object_name": "GALAXY 17 (G-17)",
        "meta_object_id": "2007-016B",
        "meta_epoch": "2025-12-07T07:30:03.174336",
        "meta_mean_motion": 1.00270009,
        "meta_eccentricity": 0.0006037,
        "meta_inclination": 2.4859,
        "meta_ra_of_asc_node": 82.3457,
        "meta_arg_of_pericenter": 161.0096,
        "meta_mean_anomaly": 220.4883,
        "meta_ephemeris_type": 0,
        "meta_classification_type": "U",
        "meta_norad_cat_id": 31307,
        "meta_element_set_no": 999,
        "meta_rev_at_epoch": 6788,
        "meta_bstar": 0,
        "meta_mean_motion_dot": -2.03e-06,
        "meta_mean_motion_ddot": 0,
        "tle_line1": "1 31307U 07016B   25341.31253674 -.00000203  00000+0  00000+0 0  9998",
        "tle_line2": "2 31307   2.4859  82.3457 0006037 161.0096 220.4883  1.00270009 67887"
      },
      "geometry": {
        "type": "Point",
        "coordinates": [
          -58.54625470710947,
          -1.5864049562002684
        ]
      }
    },
    {
      "type": "Feature",
      "properties": {
        "norad_id": 31862,
        "name": "DIRECTV 10",
        "group": "intelsat",
        "lat": 0.008262978951585627,
        "lon": -76.36270355079469,
        "alt_km": 35785.432812093444,
        "timestamp": "2025-12-07T20:38:13.745039+00:00",
        "meta_object_name": "DIRECTV 10",
        "meta_object_id": "2007-032A",
        "meta_epoch": "2025-12-07T07:18:26.373888",
        "meta_mean_motion": 1.00269963,
        "meta_eccentricity": 3.131e-05,
        "meta_inclination": 0.0034,
        "meta_ra_of_asc_node": 221.9555,
        "meta_arg_of_pericenter": 33.2255,
        "meta_mean_anomaly": 187.97,
        "meta_ephemeris_type": 0,
        "meta_classification_type": "U",
        "meta_norad_cat_id": 31862,
        "meta_element_set_no": 999,
        "meta_rev_at_epoch": 4366,
        "meta_bstar": 0,
        "meta_mean_motion_dot": -9.8e-07,
        "meta_mean_motion_ddot": 0,
        "tle_line1": "1 31862U 07032A   25341.30447192 -.00000098  00000+0  00000+0 0  9993",
        "tle_line2": "2 31862   0.0034 221.9555 0000313  33.2255 187.9700  1.00269963 43662"
      },
      "geometry": {
        "type": "Point",
        "coordinates": [
          -76.36270355079469,
          0.008262978951585627
        ]
      }
    },
    {
      "type": "Feature",
      "properties": {
        "norad_id": 32253,
        "name": "INTELSAT 11 (IS-11)",
        "group": "intelsat",
        "lat": -0.6934384976409692,
        "lon": -86.36192849912531,
        "alt_km": 36098.46274036529,
        "timestamp": "2025-12-07T20:38:13.745055+00:00",
        "meta_object_name": "INTELSAT 11 (IS-11)",
        "meta_object_id": "2007-044B",
        "meta_epoch": "2025-12-07T07:14:23.481888",
        "meta_mean_motion": 0.99047299,
        "meta_eccentricity": 0.00092322,
        "meta_inclination": 3.0656,
        "meta_ra_of_asc_node": 81.0352,
        "meta_arg_of_pericenter": 163.5456,
        "meta_mean_anomaly": 189.9763,
        "meta_ephemeris_type": 0,
        "meta_classification_type": "U",
        "meta_norad_cat_id": 32253,
        "meta_element_set_no": 999,
        "meta_rev_at_epoch": 6654,
        "meta_bstar": 0,
        "meta_mean_motion_dot": 5.6e-07,
        "meta_mean_motion_ddot": 0,
        "tle_line1": "1 32253U 07044B   25341.30166067  .00000056  00000+0  00000+0 0  9993",
        "tle_line2": "2 32253   3.0656  81.0352 0009232 163.5456 189.9763  0.99047299 66545"
      },
      "geometry": {
        "type": "Point",
        "coordinates": [
          -86.36192849912531,
          -0.6934384976409692
        ]
      }
    },
    {
      "type": "Feature",
      "properties": {
        "norad_id": 32388,
        "name": "HORIZONS-2",
        "group": "intelsat",
        "lat": -1.619989885305725,
        "lon": -47.32657676031527,
        "alt_km": 35771.30076087113,
        "timestamp": "2025-12-07T20:38:13.745067+00:00",
        "meta_object_name": "HORIZONS-2",
        "meta_object_id": "2007-063B",
        "meta_epoch": "2025-12-07T07:56:06.896832",
        "meta_mean_motion": 1.00270967,
        "meta_eccentricity": 0.00050796,
        "meta_inclination": 2.107,
        "meta_ra_of_asc_node": 83.0174,
        "meta_arg_of_pericenter": 184.9695,
        "meta_mean_anomaly": 213.6188,
        "meta_ephemeris_type": 0,
        "meta_classification_type": "U",
        "meta_norad_cat_id": 32388,
        "meta_element_set_no": 999,
        "meta_rev_at_epoch": 6589,
        "meta_bstar": 0,
        "meta_mean_motion_dot": -2.5e-06,
        "meta_mean_motion_ddot": 0,
        "tle_line1": "1 32388U 07063B   25341.33063538 -.00000250  00000+0  00000+0 0  9992",
        "tle_line2": "2 32388   2.1070  83.0174 0005079 184.9695 213.6188  1.00270967 65891"
      },
      "geometry": {
        "type": "Point",
        "coordinates": [
          -47.32657676031527,
          -1.619989885305725
        ]
      }
    },
    {
      "type": "Feature",
      "properties": {
        "norad_id": 32729,
        "name": "DIRECTV 11",
        "group": "intelsat",
        "lat": 0.0017664980366033885,
        "lon": -72.74578741468791,
        "alt_km": 35784.75369802412,
        "timestamp": "2025-12-07T20:38:13.745079+00:00",
        "meta_object_name": "DIRECTV 11",
        "meta_object_id": "2008-013A",
        "meta_epoch": "2025-12-06T11:28:54.626592",
        "meta_mean_motion": 1.00274292,
        "meta_eccentricity": 5.186e-05,
        "meta_inclination": 0.0204,
        "meta_ra_of_asc_node": 155.7645,
        "meta_arg_of_pericenter": 58.6641,
        "meta_mean_anomaly": 294.1227,
        "meta_ephemeris_type": 0,
        "meta_classification_type": "U",
        "meta_norad_cat_id": 32729,
        "meta_element_set_no": 999,
        "meta_rev_at_epoch": 4366,
        "meta_bstar": 0,
        "meta_mean_motion_dot": -1.19e-06,
        "meta_mean_motion_ddot": 0,
        "tle_line1": "1 32729U 08013A   25340.47841003 -.00000119  00000+0  00000+0 0  9996",
        "tle_line2": "2 32729   0.0204 155.7645 0000518  58.6641 294.1227  1.00274292 43661"
      },
      "geometry": {
        "type": "Point",
        "coordinates": [
          -72.74578741468791,
          0.0017664980366033885
        ]
      }
    },
    {
      "type": "Feature",
      "properties": {
        "norad_id": 32951,
        "name": "GALAXY 18 (G-18)",
        "group": "intelsat",
        "lat": -0.02416732141786881,
        "lon": -96.58474611999405,
        "alt_km": 35772.45989831523,
        "timestamp": "2025-12-07T20:38:13.745091+00:00",
        "meta_object_name": "GALAXY 18 (G-18)",
        "meta_object_id": "2008-024A",
        "meta_epoch": "2025-12-07T08:07:14.505312",
        "meta_mean_motion": 1.00270181,
        "meta_eccentricity": 0.0003321,
        "meta_inclination": 0.021,
        "meta_ra_of_asc_node": 57.0704,
        "meta_arg_of_pericenter": 202.8422,
        "meta_mean_anomaly": 175.2489,
        "meta_ephemeris_type": 0,
        "meta_classification_type": "U",
        "meta_norad_cat_id": 32951,
        "meta_element_set_no": 999,
        "meta_rev_at_epoch": 4392,
        "meta_bstar": 0,
        "meta_mean_motion_dot": 3e-07,
        "meta_mean_motion_ddot": 0,
        "tle_line1": "1 32951U 08024A   25341.33836233  .00000030  00000+0  00000+0 0  9991",
        "tle_line2": "2 32951   0.0210  57.0704 0003321 202.8422 175.2489  1.00270181 43921"
      },
      "geometry": {
        "type": "Point",
        "coordinates": [
          -96.58474611999405,
          -0.02416732141786881
        ]
      }
    },
    {
      "type": "Feature",
      "properties": {
        "norad_id": 33153,
        "name": "INTELSAT 25 (IS-25)",
        "group": "intelsat",
        "lat": -2.2083689013807324,
        "lon": -4.998190461082425,
        "alt_km": 35786.86513204395,
        "timestamp": "2025-12-07T20:38:13.745102+00:00",
        "meta_object_name": "INTELSAT 25 (IS-25)",
        "meta_object_id": "2008-034A",
        "meta_epoch": "2025-12-07T06:38:10.184928",
        "meta_mean_motion": 1.00270614,
        "meta_eccentricity": 0.00054455,
        "meta_inclination": 2.2131,
        "meta_ra_of_asc_node": 82.7068,
        "meta_arg_of_pericenter": 182.0154,
        "meta_mean_anomaly": 239.6308,
        "meta_ephemeris_type": 0,
        "meta_classification_type": "U",
        "meta_norad_cat_id": 33153,
        "meta_element_set_no": 999,
        "meta_rev_at_epoch": 6377,
        "meta_bstar": 0,
        "meta_mean_motion_dot": -2.2e-06,
        "meta_mean_motion_ddot": 0,
        "tle_line1": "1 33153U 08034A   25341.27650677 -.00000220  00000+0  00000+0 0  9998",
        "tle_line2": "2 33153   2.2131  82.7068 0005445 182.0154 239.6308  1.00270614 63771"
      },
      "geometry": {
        "type": "Point",
        "coordinates": [
          -4.998190461082425,
          -2.2083689013807324
        ]
      }
    }
  ]
}